[{"OBJECT_NAME":"HAWK-7A","OBJECT_ID":"2023-054P","EPOCH":"2026-03-03T03:10:49.156896","MEAN_MOTION":15.26128811,"ECCENTRICITY":0.0004545,"INCLINATION":97.285,"RA_OF_ASC_NODE":312.1674,"ARG_OF_PERICENTER":64.1862,"MEAN_ANOMALY":295.9845,"EPHEMERIS_TYPE":0,"CLASSIFICATION_TYPE":"U","NORAD_CAT_ID":56191,"ELEMENT_SET_NO":999,"REV_AT_EPOCH":16084,"BSTAR":0.00029208,"MEAN_MOTION_DOT":7.471e-5,"MEAN_MOTION_DDOT":0},{"OBJECT_NAME":"HAWK-7B","OBJECT_ID":"2023-054R","EPOCH":"2026-03-03T03:10:38.739648","MEAN_MOTION":15.26129147,"ECCENTRICITY":0.0004011,"INCLINATION":97.2882,"RA_OF_ASC_NODE":310.3905,"ARG_OF_PERICENTER":73.7962,"MEAN_ANOMALY":286.3718,"EPHEMERIS_TYPE":0,"CLASSIFICATION_TYPE":"U","NORAD_CAT_ID":56193,"ELEMENT_SET_NO":999,"REV_AT_EPOCH":16084,"BSTAR":0.00025351,"MEAN_MOTION_DOT":6.474e-5,"MEAN_MOTION_DDOT":0},{"OBJECT_NAME":"HAWK-7C","OBJECT_ID":"2023-054Y","EPOCH":"2026-03-03T03:10:27.011712","MEAN_MOTION":15.26090229,"ECCENTRICITY":0.0004019,"INCLINATION":97.2853,"RA_OF_ASC_NODE":311.1944,"ARG_OF_PERICENTER":65.6701,"MEAN_ANOMALY":294.4957,"EPHEMERIS_TYPE":0,"CLASSIFICATION_TYPE":"U","NORAD_CAT_ID":56200,"ELEMENT_SET_NO":999,"REV_AT_EPOCH":16084,"BSTAR":0.0002607,"MEAN_MOTION_DOT":6.652e-5,"MEAN_MOTION_DDOT":0}]
