HAWK-7A                 
1 56191U 23054P   26062.13251339  .00007471  00000+0  29208-3 0  9991
2 56191  97.2850 312.1674 0004545  64.1862 295.9845 15.26128811160840
HAWK-7B                 
1 56193U 23054R   26062.13239282  .00006474  00000+0  25351-3 0  9993
2 56193  97.2882 310.3905 0004011  73.7962 286.3718 15.26129147160845
HAWK-7C                 
1 56200U 23054Y   26062.13225708  .00006652  00000+0  26070-3 0  9997
2 56200  97.2853 311.1944 0004019  65.6701 294.4957 15.26090229160846
